#dP2021  2  8  0  0  0.00000000      96 __u+U ITR00 FIT  IAC
## 2144  86400.00000000   900.00000000 59253 0.0000000000000
+  116   C06C07C08C09C10C11C12C13C14C16C19C20C21C22C23C24C25
+        C26C27C28C29C30C32C33C34C35C36C37C38C39C40C41C42C43
+        C44C45C46E01E02E03E04E05E07E08E09E11E12E13E14E15E18
+        E19E21E24E25E26E27E30E31E33E36G01G02G03G04G05G06G07
+        G08G09G10G11G12G13G14G15G16G17G18G19G20G21G22G23G24
+        G25G26G27G28G29G30G31G32J01J02J03R01R02R03R04R05R07
+        R08R11R12R13R14R15R16R17R18R19R20R21R22R24  0  0  0
++         9  9  8  9  7  7  8  7 11  8  7  6  6  7  7  7  7
++         6  6  7  7  6  8  7  7  7  7  6  8  8  7  8  6  7
++         8  6  7  6  6  5  6  7  6  6  6  7  8  6  7  6  6
++         7  5  7  7  6  7  6  7  7  8  6  6  6  6  5  6  6
++         7  5  6  6  6  6  6  6  7  8  6  7  6  6  7  6  7
++         6  7  7  5  7  6  7  7 11  7  8  8  6  8  6  6  6
++         7  7  7  7  7  6  8  7  7  7  8  8  7  6  0  0  0
%c M  cc GPS ccc cccc cccc cccc cccc ccccc ccccc ccccc ccccc
%c cc cc ccc ccc cccc cccc cccc cccc ccccc ccccc ccccc ccccc
%f  0.0000000  0.000000000  0.00000000000  0.000000000000000
%f  0.0000000  0.000000000  0.00000000000  0.000000000000000
%i    0    0    0    0      0      0      0      0         0
%i    0    0    0    0      0      0      0      0         0
/* INFORMATION & ANALYSIS CENTER (IAC)      ULTRA-RAPID DATA
/* S/V CLOCKS ARE ALIGNED TO GNSS TIME                      
/* G:C1WC2W R:C1PC2P E:C1XC5X C:C2IC6I J:C1CC2S             
/* PCV:IGS14_2134 OL/AL:FES2004  NONE     YN ORB:CoN CLK:CoN
*  2021 02 08  8 45  0.00000000
PC06 -10337.410319  38166.625601 -13466.468778     73.136524
PC07 -11904.554292  23783.701607  32962.268879   -305.707294
PC08 -25887.347009  27909.346040 -18416.658933   -917.868443
PC09  -2132.803244  41867.910369    440.476858    747.980930
PC10   2530.282362  28786.589482  31024.087301    -90.041995
PC11  -4595.385867 -24120.869787  13290.204118   -935.923130
PC12   7056.812839 -26687.409098  -3990.856681    783.594760
PC13 -11249.969905  28692.760995 -28773.981027    132.541652
PC14 -14801.420949 -21150.726339  10556.528451     86.936107
PC16  -9352.287943  38819.336710 -13147.346338   -687.936196
PC19  21202.936697  18094.303024  -1443.704562    720.244636
PC20   7587.829777  20909.699041 -16850.627544   -913.616373
PC21  11280.299466 -11297.922107  22905.757303   -828.457829
PC22  22906.968076   4768.108445  15229.169370   -872.057197
PC23 -26539.175563   4389.560142  -7447.510315   -876.668904
PC24   3641.424507 -17673.164236 -21291.657736   -756.188022
PC25 -17109.039111  -8635.859506 -20299.745100   -925.974616
PC26  20141.550528 -16251.400577 -10398.276254    951.503764
PC27 -12470.348253  21550.384093  12567.691756    479.841900
PC28 -16258.051813   2929.971099  22496.870292   -112.042129
PC29  11165.931296  16925.887299 -19172.782396    349.556874
PC30   -684.627026  27564.911097  -4209.855075    442.038641
PC32 -11191.568095  11383.850109 -22874.072147   -891.697633
PC33 -21228.208224 -18036.196596   1564.999320   -956.216035
PC34    308.106818 -27495.779447   4838.970259   -744.791485
PC35  16202.702618  -3181.216140 -22501.404179   -427.841720
PC36  16584.209643   9265.740547  20457.900037   -759.895895
PC37 -21130.791914  15481.048739   9669.275408   -863.516187
PC38 -22880.630116  29600.927875 -19532.743564    128.784226
PC39  -6258.467053  39666.764656 -12629.507100     28.254458
PC40  -2221.398055  23987.850791  34647.223879    129.434283
PC41 -23004.165346  -4938.818276 -14967.033178   -930.603565
PC42  -6854.941303 -20802.916916  17328.357076   -853.206111
PC43 -10933.511317 -17443.036367  18849.665053   -588.391343
PC44  11918.755664 -21830.314874 -12694.539252     27.945325
PC45  26502.822823  -4526.989974   7419.782773    356.623115
PC46  -2776.815197  17430.035094  21625.574844    415.049168
PE01 -21095.582055 -13013.867556 -16192.065530  -1041.713732
PE02  21160.200592  12965.873068  16112.704068    196.891876
PE03  16761.320266  23056.371854   7992.636852   -396.291671
PE04 -19387.185973  -5515.597315 -21675.938801   -705.471691
PE05   4255.092091  27315.093266 -10581.027812   -306.284021
PE07  10613.335525 -15601.624257  22806.612812   -498.131133
PE08  19247.492150   5144.465407  21892.488416   6050.094452
PE09 -10294.217499  15755.174203 -22849.310843   5772.382547
PE11 -19240.187345  21946.600312   4879.898397   6351.654972
PE12 -20317.506410   5150.099758  20901.017807   5366.588033
PE13  19302.271233 -21816.431616  -5268.264072    411.708142
PE14 -13768.984061 -12930.399529  14114.646271  -1322.658306
PE15  20260.465114  -5337.171860 -20897.546595    830.344315
PE18  20418.664201  11328.943303 -22661.786429  -1445.810359
PE19 -15705.639529 -24383.360211  -5926.925122    198.557933
PE21  -1095.161281 -16630.285744 -24466.720169   -647.296902
PE24 -20839.655532  10326.616923  18314.321042   -732.455712
PE25    858.156568  16618.008092  24482.530387   -525.997793
PE26   6470.546395 -25291.734749  13962.152591   2172.450399
PE27  20196.533549 -10742.989535 -18774.589114     34.287604
PE30  29485.863043   2065.321964  -1340.139997   3198.113989
PE31 -29498.939764  -1419.206466   2088.436712   -478.093629
PE33  -9292.824077 -14276.534890  24220.670300   -465.518960
PE36  -7012.196775  25432.223746 -13406.141420    443.452562
PG01 -11624.184229  20799.329428 -11608.554763    765.395568
PG02  21059.303072 -12742.333182  -9340.542938   -574.653551
PG03  -2563.719143  14966.856123 -21875.627746    -77.419251
PG04  -2668.665305  24392.778753 -10091.042495   -178.735598
PG05  20933.680611  -5436.962698  15389.691940    -33.132120
PG06  18399.340433    484.519644 -19103.651425     -3.385493
PG07   2886.796672  16966.465380  20435.705111     51.219372
PG08  -6751.981447  19792.914142  16199.500511     -9.531099
PG09   6847.387346  25624.047541   1060.282496   -320.883637
PG10 -23051.957785 -11901.700098   6426.417128    -56.923223
PG11 -10358.653056  24577.992879   1730.794364    -30.526992
PG12   7795.319134 -12984.207242 -22054.729772      1.815068
PG13  13243.267030 -10246.207493  20451.547522     94.829091
PG14  21499.547498  13624.517115   7596.862299     95.186022
PG15   4912.270826 -20784.960509  15204.800916   -170.849117
PG16 -22262.425485   1325.821721  14536.543790   -276.976364
PG17  13245.092383  16315.099727 -15812.177521    390.537824
PG18  -4930.352226 -15151.849141  21236.593632    346.235279
PG19  14855.989509   8299.241685 -20698.529085    -41.281410
PG20 -14742.790612 -14779.065545  16519.452081    524.793070
PG21 -16830.866357  20022.260344  -2238.363438     93.789679
PG22 -11938.632917  12501.064929 -19924.740331   -683.362111
PG23 -15115.799661 -15515.234362  15373.341670    118.165336
PG24  14020.705266 -21449.719607  -6385.886108      2.612873
PG25  -8109.450651 -16706.934884 -19347.085713     76.226002
PG26 -26042.733657  -3695.958264   4559.298335     41.823718
PG27 -13419.069677   6988.933833  21634.802711    -72.167137
PG28  22318.852237  13390.916176   5307.846886    618.549957
PG29  -4432.263204 -26147.912672    938.090310   -291.028484
PG30  13665.211033   8715.180180  21115.120389   -381.516904
PG31 -20383.591937   1505.465752 -17285.243216    -98.810289
PG32 -15099.475225 -14488.161564 -16359.272043     17.956614
PJ01 -21610.970234  19374.314018 -26009.306633   -339.799451
PJ02 -31095.875142  22928.972915  21720.197723      1.612312
PJ03 -28260.288922  27201.625804  20615.638349     -0.554870
PR01 -17983.100175 -17805.210220  -3155.990064     74.694313
PR02 -15078.818355  -2921.329303 -20345.882696    466.201972
PR03  -3208.917890  12340.441398 -22042.420184     30.509311
PR04  10440.538622  20323.876313 -11307.144767     73.235396
PR05  18080.030572  17022.746490   5786.046942     66.165101
PR07   2670.212215 -12872.720070  21903.271476    -42.368989
PR08 -10379.010302 -20388.579785  11356.187919    -57.268061
PR11  -2190.493481 -10651.896146 -23066.303435      3.607910
PR12 -19506.144508  -3967.548521 -15946.977145    203.294841
PR13 -24993.509006   5115.220599     50.086233    -50.444630
PR14 -15695.486839  11230.012698  16681.881923     60.780310
PR15   2468.027792  10725.983291  23025.905871    105.525250
PR16  20100.621933   3239.201562  15250.250798    -11.059332
PR17 -10905.549687  22215.690031   6267.882305    398.264807
PR18  -3187.582806  22931.272810 -10624.132524     65.942193
PR19   5538.060534  12321.522850 -21630.678688   -131.177003
PR20  12917.023598  -8120.225905 -20442.752708   -432.907074
PR21  10559.258373 -22636.762228  -5110.322110   -186.162185
PR22   2723.746257 -22578.488046  11646.472960    -96.761976
PR24 -13288.845636   8804.692965  19939.181096     30.759810
EOF
